NORAD_CAT_ID,OBJECT_NAME,OBJECT_TYPE,EPOCH,MEAN_MOTION,ECCENTRICITY,INCLINATION,RA_OF_ASC_NODE,ARG_OF_PERICENTER,MEAN_ANOMALY,BSTAR,MEAN_MOTION_DOT,MEAN_MOTION_DDOT,TLE_LINE0,TLE_LINE1,TLE_LINE2,SEMIMAJOR_AXIS,PERIOD,APOGEE,PERIGEE,DECAYED
52117.0,STARLINK-3738,PAYLOAD,2022-04-09 20:00:01,15.73158457,0.0001135,53.2178,36.9825,109.7379,43.577,0.0006281,0.00088302,0.0,0 STARLINK-3738,1 52117U 22029AF  22099.83334491  .00088302  00000-0  62810-3 0  9999,2 52117  53.2178  36.9825 0001135 109.7379  43.5770 15.73158457  4661,6728.014,91.536,350.642,349.115,0.0
52117.0,STARLINK-3738,PAYLOAD,2022-04-09 22:00:00,15.73187862,0.0001088,53.2177,36.5708,107.5727,157.96,0.00037002,0.00051602,0.0,0 STARLINK-3738,1 52117U 22029AF  22099.91667824  .00051602  00000-0  37002-3 0  9995,2 52117  53.2177  36.5708 0001088 107.5727 157.9600 15.73187862  3715,6727.93,91.534,350.527,349.06300000000016,0.0
52117.0,STARLINK-3738,PAYLOAD,2022-04-10 12:00:00,15.73307945,0.0001095,53.2172,33.6843,104.8611,226.3416,-0.00079534,-0.00111285,0.0,0 STARLINK-3738,1 52117U 22029AF  22100.50001157 -.00111285  00000-0 -79534-3 0  9996,2 52117  53.2172  33.6843 0001095 104.8611 226.3416 15.73307945  4766,6727.587,91.527,350.189,348.716,0.0
52117.0,STARLINK-3738,PAYLOAD,2022-04-10 14:00:01,15.73275556,0.00011,53.2173,33.2715,109.7792,333.6889,-0.0005392,-0.00075856,0.0,0 STARLINK-3738,1 52117U 22029AF  22100.58334491 -.00075856  00000-0 -53920-3 0  9998,2 52117  53.2173  33.2715 0001100 109.7792 333.6889 15.73275556  3714,6727.68,91.529,350.285,348.805,0.0
52117.0,STARLINK-3738,PAYLOAD,2022-04-10 20:00:01,15.73268885,0.0001238,53.2176,32.0338,112.9458,307.2895,-0.00033352,-0.00047302,0.0,0 STARLINK-3738,1 52117U 22029AF  22100.83334491 -.00047302  00000-0 -33352-3 0  9998,2 52117  53.2176  32.0338 0001238 112.9458 307.2895 15.73268885  4826,6727.699000000001,91.529,350.397,348.731,0.0
52117.0,STARLINK-3738,PAYLOAD,2022-04-10 22:00:00,15.73268892,0.0001207,53.2176,31.6219,112.0326,60.4522,-0.00047387,-0.00066793,0.0,0 STARLINK-3738,1 52117U 22029AF  22100.91667824 -.00066793  00000-0 -47387-3 0  9994,2 52117  53.2176  31.6219 0001207 112.0326  60.4522 15.73268892  3710,6727.699000000001,91.529,350.376,348.75199999999984,0.0
52117.0,STARLINK-3738,PAYLOAD,2022-04-11 04:00:01,15.73186654,0.0001081,53.2177,30.3863,99.2882,49.9889,-0.00010838,-0.00015792,0.0,0 STARLINK-3738,1 52117U 22029AF  22101.16668981 -.00015792  00000-0 -10838-3 0  9991,2 52117  53.2177  30.3863 0001081  99.2882  49.9889 15.73186654  4876,6727.933000000001,91.534,350.526,349.071,0.0
52117.0,STARLINK-3738,PAYLOAD,2022-04-11 14:00:01,15.73198245,0.0001125,53.2176,28.3227,109.4217,240.9077,-0.00035716,-0.0005044,0.0,0 STARLINK-3738,1 52117U 22029AF  22101.58334491 -.00050440  00000-0 -35716-3 0  9994,2 52117  53.2176  28.3227 0001125 109.4217 240.9077 15.73198245  3703,6727.9,91.533,350.522,349.0080000000001,0.0
52117.0,STARLINK-3738,PAYLOAD,2022-04-11 22:00:00,15.73151608,0.0001457,53.2176,26.6739,105.8262,333.4105,-0.00036609,-0.00051579,0.0,0 STARLINK-3738,1 52117U 22029AF  22101.91667824 -.00051579  00000-0 -36609-3 0  9996,2 52117  53.2176  26.6739 0001457 105.8262 333.4105 15.73151608  3702,6728.033,91.536,350.87800000000016,348.918,0.0
52117.0,STARLINK-3738,PAYLOAD,2022-04-12 04:00:00,15.73086001,0.0001523,53.2174,25.4385,98.5821,317.2899,0.00062631,0.00087771,0.0,0 STARLINK-3738,1 52117U 22029AF  22102.16667824  .00087771  00000-0  62631-3 0  9999,2 52117  53.2174  25.4385 0001523  98.5821 317.2899 15.73086001  5039,6728.22,91.54,351.11,349.061,0.0
52117.0,STARLINK-3738,PAYLOAD,2022-04-12 14:00:01,15.73137055,0.0001474,53.2172,23.3748,109.2888,147.634,0.00062128,0.00087247,0.0,0 STARLINK-3738,1 52117U 22029AF  22102.58334491  .00087247  00000-0  62128-3 0  9995,2 52117  53.2172  23.3748 0001474 109.2888 147.6340 15.73137055  3709,6728.075,91.537,350.931,348.9480000000001,0.0
52117.0,STARLINK-3738,PAYLOAD,2022-04-12 20:00:01,15.73185041,0.0001547,53.2176,22.1378,111.2712,122.2926,0.00033263,0.0004629,0.0,0 STARLINK-3738,1 52117U 22029AF  22102.83334491  .00046290  00000-0  33263-3 0  9994,2 52117  53.2176  22.1378 0001547 111.2712 122.2926 15.73185041  5135,6727.938,91.534,350.844,348.76199999999994,0.0
52117.0,STARLINK-3738,PAYLOAD,2022-04-12 22:00:00,15.73205301,0.0001509,53.2176,21.726,108.3584,237.4307,0.00011373,0.00015374,0.0,0 STARLINK-3738,1 52117U 22029AF  22102.91667824  .00015374  00000-0  11373-3 0  9999,2 52117  53.2176  21.7260 0001509 108.3584 237.4307 15.73205301  3707,6727.88,91.533,350.76,348.73,0.0
52117.0,STARLINK-3738,PAYLOAD,2022-04-13 14:00:03,15.73242787,0.0001185,53.2176,18.4262,115.6454,48.2296,0.00011909,0.00016156,0.0,0 STARLINK-3738,1 52117U 22029AF  22103.58336806  .00016156  00000-0  11909-3 0  9990,2 52117  53.2176  18.4262 0001185 115.6454  48.2296 15.73242787  3714,6727.773,91.531,350.435,348.841,0.0
52117.0,STARLINK-3738,PAYLOAD,2022-04-13 20:00:01,15.73324464,0.0001453,53.2177,17.1895,113.5019,27.0706,0.00034245,0.00047973,0.0,0 STARLINK-3738,1 52117U 22029AF  22103.83335648  .00047973  00000-0  34245-3 0  9990,2 52117  53.2177  17.1895 0001453 113.5019  27.0706 15.73324464  5294,6727.54,91.526,350.3830000000001,348.42800000000005,0.0
52117.0,STARLINK-3738,PAYLOAD,2022-04-13 22:00:00,15.73339112,0.0001401,53.2175,16.7778,110.6733,142.1024,0.00022236,0.00030887,0.0,0 STARLINK-3738,1 52117U 22029AF  22103.91667824  .00030887  00000-0  22236-3 0  9996,2 52117  53.2175  16.7778 0001401 110.6733 142.1024 15.73339112  3703,6727.499,91.525,350.306,348.421,0.0
52117.0,STARLINK-3738,PAYLOAD,2022-04-14 04:00:00,15.73191089,0.0001185,53.2174,15.5419,103.3623,126.1449,0.00020889,0.00028785,0.0,0 STARLINK-3738,1 52117U 22029AF  22104.16667824  .00028785  00000-0  20889-3 0  9990,2 52117  53.2174  15.5419 0001185 103.3623 126.1449 15.73191089  5341,6727.920999999999,91.534,350.583,348.98800000000006,0.0
52117.0,STARLINK-3738,PAYLOAD,2022-04-14 14:00:01,15.73214602,0.0001205,53.2171,13.4779,119.952,310.7149,-0.00013347,-0.0001932,0.0,0 STARLINK-3738,1 52117U 22029AF  22104.58334491 -.00019320  00000-0 -13347-3 0  9995,2 52117  53.2171  13.4779 0001205 119.9520 310.7149 15.73214602  3709,6727.854,91.532,350.529,348.908,0.0
52117.0,STARLINK-3738,PAYLOAD,2022-04-14 20:00:01,15.73225639,0.0001273,53.2176,12.2412,117.785,289.5871,-0.00030508,-0.00043263,0.0,0 STARLINK-3738,1 52117U 22029AF  22104.83334491 -.00043263  00000-0 -30508-3 0  9994,2 52117  53.2176  12.2412 0001273 117.7850 289.5871 15.73225639  5453,6727.821999999999,91.532,350.5440000000001,348.831,0.0
52117.0,STARLINK-3738,PAYLOAD,2022-04-14 22:00:00,15.73230293,0.0001239,53.2175,11.8295,115.2325,44.3737,-0.00049871,-0.00070119,0.0,0 STARLINK-3738,1 52117U 22029AF  22104.91667824 -.00070119  00000-0 -49871-3 0  9995,2 52117  53.2175  11.8295 0001239 115.2325  44.3737 15.73230293  3715,6727.809,91.531,350.50699999999995,348.84,0.0
52117.0,STARLINK-3738,PAYLOAD,2022-04-15 03:25:23,15.73232247,0.0001011,53.2176,10.7088,109.0853,251.0277,3.8828e-05,4.84e-05,0.0,0 STARLINK-3738,1 52117U 22029AF  22105.14263719  .00004840  00000-0  38828-4 0  9993,2 52117  53.2176  10.7088 0001011 109.0853 251.0277 15.73232247  5505,6727.803000000001,91.531,350.348,348.98800000000006,0.0
52117.0,STARLINK-3738,PAYLOAD,2022-04-15 14:00:01,15.73279923,0.0001061,53.2173,8.5295,125.9073,211.6575,0.00041747,0.0005857999999999,0.0,0 STARLINK-3738,1 52117U 22029AF  22105.58334491  .00058580  00000-0  41747-3 0  9990,2 52117  53.2173   8.5295 0001061 125.9073 211.6575 15.73279923  3708,6727.667,91.529,350.246,348.819,0.0
52117.0,STARLINK-3738,PAYLOAD,2022-04-15 20:00:01,15.73319181,0.0001155,53.2174,7.2931,122.0411,192.271,-0.00069787,-0.00097924,0.0,0 STARLINK-3738,1 52117U 22029AF  22105.83334491 -.00097924  00000-0 -69787-3 0  9999,2 52117  53.2174   7.2931 0001155 122.0411 192.2710 15.73319181  5607,6727.555,91.526,350.19699999999995,348.64300000000014,0.0
52117.0,STARLINK-3738,PAYLOAD,2022-04-15 22:00:00,15.73305037,0.0001131,53.2172,6.8813,116.5881,309.988,-0.00072076,-0.00101018,0.0,0 STARLINK-3738,1 52117U 22029AF  22105.91667824 -.00101018  00000-0 -72076-3 0  9992,2 52117  53.2172   6.8813 0001131 116.5881 309.9880 15.73305037  3688,6727.596,91.527,350.222,348.7,0.0
52117.0,STARLINK-3738,PAYLOAD,2022-04-16 04:00:00,15.73232704,0.0001159,53.2168,5.6452,105.9275,297.3861,-0.0007379999999999,-0.00103075,0.0,0 STARLINK-3738,1 52117U 22029AF  22106.16667824 -.00103075  00000-0 -73800-3 0  9991,2 52117  53.2168   5.6452 0001159 105.9275 297.3861 15.73232704  5667,6727.802,91.531,350.44699999999995,348.88699999999994,0.0
52117.0,STARLINK-3738,PAYLOAD,2022-04-16 12:00:02,15.73106356,0.0001353,53.2167,3.9936,117.934,14.3753,-0.00055381,-0.00077324,0.0,0 STARLINK-3738,1 52117U 22029AF  22106.50002315 -.00077324  00000-0 -55381-3 0  9998,2 52117  53.2167   3.9936 0001353 117.9340  14.3753 15.73106356  5712,6728.1619999999975,91.539,350.93699999999984,349.117,0.0
52117.0,STARLINK-3738,PAYLOAD,2022-04-16 14:00:01,15.73064833,0.0001419999999999,53.2165,3.5810000000000004,119.5238,124.9301,-7.0744e-05,-0.00010478,0.0,0 STARLINK-3738,1 52117U 22029AF  22106.58334491 -.00010478  00000-0 -70744-4 0  9997,2 52117  53.2165   3.5810 0001420 119.5238 124.9301 15.73064833  3703,6728.281,91.541,351.101,349.19,0.0
52117.0,STARLINK-3738,PAYLOAD,2022-04-16 20:00:01,15.73031213,0.0001286,53.2169,2.345,120.7655,100.2621,0.00095225,0.00134202,0.0,0 STARLINK-3738,1 52117U 22029AF  22106.83334491  .00134202  00000-0  95225-3 0  9995,2 52117  53.2169   2.3450 0001286 120.7655 100.2621 15.73031213  5767,6728.376,91.543,351.107,349.376,0.0
52117.0,STARLINK-3738,PAYLOAD,2022-04-16 22:00:01,15.73054481,0.0001217,53.2168,1.9332,117.8021,215.4759,0.00090697,0.0012782,0.0,0 STARLINK-3738,1 52117U 22029AF  22106.91668981  .00127820  00000-0  90697-3 0  9994,2 52117  53.2168   1.9332 0001217 117.8021 215.4759 15.73054481  3691,6728.31,91.542,350.994,349.356,0.0
